OBJECT_NAME,OBJECT_ID,EPOCH,MEAN_MOTION,ECCENTRICITY,INCLINATION,RA_OF_ASC_NODE,ARG_OF_PERICENTER,MEAN_ANOMALY,EPHEMERIS_TYPE,CLASSIFICATION_TYPE,NORAD_CAT_ID,ELEMENT_SET_NO,REV_AT_EPOCH,BSTAR,MEAN_MOTION_DOT,MEAN_MOTION_DDOT
STARLINK-5700,2023-020AQ,2026-06-27T18:32:10.989024,15.27579989,.00016381,43.0005,92.6579,177.8137,182.2722,0,U,55607,999,18587,-.13938527E-3,-.4096E-4,0
STARLINK-5726,2023-020AR,2026-06-27T20:11:53.084832,15.27576273,.00015217,43.0026,92.3163,261.5758,98.4921,0,U,55608,999,18588,.20099172E-4,.291E-5,0
STARLINK-5719,2023-020AS,2026-06-28T00:43:15.352320,15.27572998,.00015207,43.0038,91.1569,269.7103,90.3574,0,U,55609,999,18591,.4421827E-4,.954E-5,0
STARLINK-5722,2023-020AT,2026-06-28T10:30:23.887008,15.27573358,.00008157,43.0012,89.0461,251.1553,108.9211,0,U,55610,999,18597,.22295455E-4,.352E-5,0
STARLINK-5730,2023-020AU,2026-06-27T23:40:33.152448,15.27574444,.00009851,43.0023,91.6714,258.7812,101.2929,0,U,55611,999,18590,.2167265E-4,.334E-5,0
STARLINK-5734,2023-020AV,2026-06-28T10:45:12.073824,15.27575484,.00010133,43.0021,89.1295,260.0735,100.0002,0,U,55612,999,18597,.23569354E-4,.387E-5,0
STARLINK-5714,2023-020AX,2026-06-28T09:57:48.212640,15.27576059,.00011807,43.0050,74.1296,264.7883,95.2834,0,U,55614,999,18614,.25323844E-4,.435E-5,0
STARLINK-5712,2023-020AY,2026-06-28T10:59:46.910976,15.27548737,.0001392,43.0049,88.3496,265.5567,94.5126,0,U,55615,999,18598,.11309331E-3,.2848E-4,0
STARLINK-5710,2023-020AZ,2026-06-28T11:14:35.808000,15.27573126,.0001103,43.0049,88.4257,271.4052,88.6673,0,U,55616,999,18598,.4489872E-4,.973E-5,0
STARLINK-5721,2023-020BA,2026-06-28T11:05:20.529024,15.27584477,.00009709,43.0058,88.3750,272.4687,87.6053,0,U,55617,999,18598,.2361334E-5,-.197E-5,0
STARLINK-5717,2023-020BB,2026-06-28T11:20:08.239776,15.27579648,.00018711,43.0064,88.4552,272.1313,87.9324,0,U,55618,999,18598,-.306537E-6,-.271E-5,0
STARLINK-5720,2023-020BC,2026-06-28T11:25:41.537280,15.27590903,.00014525,43.0047,88.4778,268.8021,91.2665,0,U,55619,999,18597,-.16100432E-3,-.4691E-4,0
STARLINK-5718,2023-020BD,2026-06-28T00:32:09.030336,15.27573076,.00016276,43.0044,91.0933,270.8038,89.2627,0,U,55620,999,18591,.53114649E-4,.1199E-4,0
STARLINK-5709,2023-020BE,2026-06-28T11:09:02.347200,15.27576788,.00014119,43.0061,88.3965,273.2624,86.8066,0,U,55621,999,18598,.29498557E-4,.549E-5,0
STARLINK-5702,2023-020BF,2026-06-27T18:21:04.334400,15.27574061,.00016219,43.0049,92.5999,270.5850,89.4815,0,U,55622,999,18587,.46134844E-4,.1007E-4,0
STARLINK-5698,2023-020BG,2026-06-27T19:58:55.642080,15.27580932,.00017183,43.0034,92.2477,269.3292,90.7363,0,U,55623,999,930,.35831943E-4,.724E-5,0
STARLINK-5484,2023-021A,2026-06-28T15:04:49.725120,14.98328866,.00032642,69.9994,284.8235,268.5267,91.5518,0,U,55628,999,18491,.60495269E-4,.629E-5,0
STARLINK-5497,2023-021B,2026-06-28T13:34:42.236832,14.98329901,.00031322,69.9995,285.0072,268.8743,91.2057,0,U,55629,999,18490,.91992003E-4,.1005E-4,0
STARLINK-5303,2023-021C,2026-06-28T14:58:49.115712,14.98329189,.00030923,69.9994,284.8082,270.1913,89.8891,0,U,55630,999,18491,.41888455E-4,.407E-5,0
STARLINK-5558,2023-021D,2026-06-28T14:22:44.568480,14.98332655,.00029384,69.9999,284.7203,253.0117,107.0720,0,U,55631,999,18491,-.23479965E-3,-.2894E-4,0
STARLINK-5546,2023-021E,2026-06-28T14:46:47.926272,14.98338417,.00032201,69.9997,284.7771,270.3004,89.7786,0,U,55632,999,18491,-.30917993E-4,-.462E-5,0
STARLINK-5498,2023-021F,2026-06-28T14:40:46.922016,14.98330461,.00035662,69.9994,284.7629,269.6117,90.4634,0,U,55633,999,18491,.6736844E-4,.711E-5,0
STARLINK-5500,2023-021G,2026-06-28T14:47:04.323264,14.98311435,.00027204,70.0005,284.7796,266.3678,93.7170,0,U,55634,999,18490,-.64261575E-4,-.859E-5,0
STARLINK-5495,2023-021H,2026-06-28T14:16:25.051296,14.98330973,.00034328,69.9986,264.8345,270.6488,89.4278,0,U,55635,999,18540,.70700396E-4,.751E-5,0
STARLINK-5218,2023-021J,2026-06-28T14:28:55.754112,14.98194025,.00032265,69.9997,284.7349,249.1935,110.8879,0,U,55636,999,18491,-.14889844E-2,-.17752E-3,0
STARLINK-5062,2023-021K,2026-06-28T14:40:27.713568,14.98329736,.00034913,69.9990,264.8914,270.9756,89.1003,0,U,55637,999,18540,.53734335E-4,.548E-5,0
STARLINK-5507,2023-021L,2026-06-28T14:34:46.587360,14.98327436,.00032558,69.9997,284.7485,272.5321,87.5465,0,U,55638,999,18491,.34095534E-4,.314E-5,0
STARLINK-5508,2023-021M,2026-06-28T14:10:41.244960,14.98313597,.00038364,69.9988,264.8188,264.5144,95.5578,0,U,55639,999,18540,-.25408867E-3,-.3122E-4,0
STARLINK-5069,2023-021N,2026-06-28T14:04:23.860992,14.98330202,.00031809,69.9989,264.8016,268.9819,91.0975,0,U,55640,999,18540,.574496E-4,.593E-5,0
STARLINK-5065,2023-021P,2026-06-28T14:46:28.715232,14.98341979,.00038234,69.9989,264.9034,268.1298,91.9423,0,U,55641,999,18540,.11628287E-3,.1295E-4,0
