STARLINK-5700           
1 55607U 23020AQ  26178.77234941 -.00004096  00000+0 -13939-3 0  9999
2 55607  43.0005  92.6579 0001638 177.8137 182.2722 15.27579989185872
STARLINK-5726           
1 55608U 23020AR  26178.84158663  .00000291  00000+0  20099-4 0  9991
2 55608  43.0026  92.3163 0001521 261.5758  98.4921 15.27576273185886
STARLINK-5719           
1 55609U 23020AS  26179.03003880  .00000954  00000+0  44218-4 0  9999
2 55609  43.0038  91.1569 0001520 269.7103  90.3574 15.27572998185919
STARLINK-5722           
1 55610U 23020AT  26179.43777647  .00000352  00000+0  22295-4 0  9997
2 55610  43.0012  89.0461 0000815 251.1553 108.9211 15.27573358185971
STARLINK-5730           
1 55611U 23020AU  26178.98649482  .00000334  00000+0  21673-4 0  9991
2 55611  43.0023  91.6714 0000985 258.7812 101.2929 15.27574444185905
STARLINK-5734           
1 55612U 23020AV  26179.44805641  .00000387  00000+0  23569-4 0  9999
2 55612  43.0021  89.1295 0001013 260.0735 100.0002 15.27575484185974
STARLINK-5714           
1 55614U 23020AX  26179.41514135  .00000435  00000+0  25324-4 0  9998
2 55614  43.0050  74.1296 0001180 264.7883  95.2834 15.27576059186140
STARLINK-5712           
1 55615U 23020AY  26179.45818184  .00002848  00000+0  11309-3 0  9991
2 55615  43.0049  88.3496 0001392 265.5567  94.5126 15.27548737185980
STARLINK-5710           
1 55616U 23020AZ  26179.46847000  .00000973  00000+0  44899-4 0  9990
2 55616  43.0049  88.4257 0001103 271.4052  88.6673 15.27573126185983
STARLINK-5721           
1 55617U 23020BA  26179.46204316 -.00000197  00000+0  23613-5 0  9999
2 55617  43.0058  88.3750 0000970 272.4687  87.6053 15.27584477185989
STARLINK-5717           
1 55618U 23020BB  26179.47231759 -.00000271  00000+0 -30654-6 0  9990
2 55618  43.0064  88.4552 0001871 272.1313  87.9324 15.27579648185980
STARLINK-5720           
1 55619U 23020BC  26179.47617520 -.00004691  00000+0 -16100-3 0  9992
2 55619  43.0047  88.4778 0001452 268.8021  91.2665 15.27590903185977
STARLINK-5718           
1 55620U 23020BD  26179.02232674  .00001199  00000+0  53115-4 0  9994
2 55620  43.0044  91.0933 0001627 270.8038  89.2627 15.27573076185915
STARLINK-5709           
1 55621U 23020BE  26179.46461050  .00000549  00000+0  29499-4 0  9991
2 55621  43.0061  88.3965 0001411 273.2624  86.8066 15.27576788185988
STARLINK-5702           
1 55622U 23020BF  26178.76463350  .00001007  00000+0  46135-4 0  9995
2 55622  43.0049  92.5999 0001621 270.5850  89.4815 15.27574061185874
STARLINK-5698           
1 55623U 23020BG  26178.83258845  .00000724  00000+0  35832-4 0  9992
2 55623  43.0034  92.2477 0001718 269.3292  90.7363 15.27580932  9300
STARLINK-5484           
1 55628U 23021A   26179.62835330  .00000629  00000+0  60495-4 0  9993
2 55628  69.9994 284.8235 0003264 268.5267  91.5518 14.98328866184914
STARLINK-5497           
1 55629U 23021B   26179.56576663  .00001005  00000+0  91992-4 0  9993
2 55629  69.9995 285.0072 0003132 268.8743  91.2057 14.98329901184909
STARLINK-5303           
1 55630U 23021C   26179.62417958  .00000407  00000+0  41888-4 0  9997
2 55630  69.9994 284.8082 0003092 270.1913  89.8891 14.98329189184916
STARLINK-5558           
1 55631U 23021D   26179.59912695 -.00002894  00000+0 -23480-3 0  9993
2 55631  69.9999 284.7203 0002938 253.0117 107.0720 14.98332655184916
STARLINK-5546           
1 55632U 23021E   26179.61583248 -.00000462  00000+0 -30918-4 0  9999
2 55632  69.9997 284.7771 0003220 270.3004  89.7786 14.98338417184917
STARLINK-5498           
1 55633U 23021F   26179.61165419  .00000711  00000+0  67368-4 0  9990
2 55633  69.9994 284.7629 0003566 269.6117  90.4634 14.98330461184918
STARLINK-5500           
1 55634U 23021G   26179.61602226 -.00000859  00000+0 -64262-4 0  9998
2 55634  70.0005 284.7796 0002720 266.3678  93.7170 14.98311435184907
STARLINK-5495           
1 55635U 23021H   26179.59473439  .00000751  00000+0  70700-4 0  9991
2 55635  69.9986 264.8345 0003432 270.6488  89.4278 14.98330973185405
STARLINK-5218           
1 55636U 23021J   26179.60342308 -.00017752  00000+0 -14890-2 0  9991
2 55636  69.9997 284.7349 0003226 249.1935 110.8879 14.98194025184919
STARLINK-5062           
1 55637U 23021K   26179.61143187  .00000548  00000+0  53734-4 0  9992
2 55637  69.9990 264.8914 0003491 270.9756  89.1003 14.98329736185408
STARLINK-5507           
1 55638U 23021L   26179.60748365  .00000314  00000+0  34096-4 0  9992
2 55638  69.9997 284.7485 0003255 272.5321  87.5465 14.98327436184918
STARLINK-5508           
1 55639U 23021M   26179.59075515 -.00003122  00000+0 -25409-3 0  9990
2 55639  69.9988 264.8188 0003836 264.5144  95.5578 14.98313597185409
STARLINK-5069           
1 55640U 23021N   26179.58638728  .00000593  00000+0  57450-4 0  9991
2 55640  69.9989 264.8016 0003180 268.9819  91.0975 14.98330202185405
STARLINK-5065           
1 55641U 23021P   26179.61561013  .00001295  00000+0  11628-3 0  9994
2 55641  69.9989 264.9034 0003823 268.1298  91.9423 14.98341979185404
